[{"OBJECT_NAME":"NETSAT-1","OBJECT_ID":"2020-068W","EPOCH":"2026-03-09T22:42:38.711232","MEAN_MOTION":15.32042482,"ECCENTRICITY":0.00057337,"INCLINATION":97.8751,"RA_OF_ASC_NODE":63.2583,"ARG_OF_PERICENTER":18.5877,"MEAN_ANOMALY":341.5572,"EPHEMERIS_TYPE":0,"CLASSIFICATION_TYPE":"U","NORAD_CAT_ID":46506,"ELEMENT_SET_NO":999,"REV_AT_EPOCH":30009,"BSTAR":0.00059222329,"MEAN_MOTION_DOT":0.00018269,"MEAN_MOTION_DDOT":0},{"OBJECT_NAME":"STARLINK-34853","OBJECT_ID":"2025-224L","EPOCH":"2026-03-09T05:21:34.009920","MEAN_MOTION":15.30190301,"ECCENTRICITY":0.00010648,"INCLINATION":53.161,"RA_OF_ASC_NODE":13.4669,"ARG_OF_PERICENTER":90.7597,"MEAN_ANOMALY":269.3526,"EPHEMERIS_TYPE":0,"CLASSIFICATION_TYPE":"U","NORAD_CAT_ID":65892,"ELEMENT_SET_NO":999,"REV_AT_EPOCH":2473,"BSTAR":0.00084273139,"MEAN_MOTION_DOT":0.00024675,"MEAN_MOTION_DDOT":0}]
